ONEWEB-0130             
1 47276U 20100U   26199.82829721 -.00000203  00000+0 -59829-3 0  9997
2 47276  87.8980 344.3627 0001961  98.8436 261.2915 13.12443652268791
ONEWEB-0131             
1 47277U 20100V   26199.82491081 -.00000305  00000+0 -88306-3 0  9997
2 47277  87.8964 344.3782 0001878 102.5603 257.5735 13.12443004268836
ONEWEB-0132             
1 47278U 20100W   26199.85371302  .00000444  00000+0  11979-2 0  9997
2 47278  87.8967 344.3750 0001914  98.3466 261.7880 13.12441831268738
ONEWEB-0133             
1 47279U 20100X   26199.79426497  .00000009  00000+0 -11594-4 0  9990
2 47279  87.8978 344.3663 0001871 105.3949 254.7386 13.12442648268887
ONEWEB-0134             
1 47280U 20100Y   26199.84015862  .00000202  00000+0  52723-3 0  9990
2 47280  87.8979 344.3546 0002080 101.7875 258.3487 13.12443367268860
ONEWEB-0135             
1 47281U 20100Z   26199.81134573 -.00000445  00000+0 -12738-2 0  9991
2 47281  87.8966 344.3788 0002029 104.7629 255.3724 13.12442579268885
ONEWEB-0136             
1 47282U 20100AA  26199.82998772 -.00000208  00000+0 -61249-3 0  9991
2 47282  87.8972 344.3592 0002129 102.3318 257.8049 13.12443603268815
ONEWEB-0137             
1 47283U 20100AB  26199.78763321  .00000317  00000+0  84503-3 0  9994
2 47283  87.8980 344.3789 0001819  92.3707 267.7630 13.12442508268716
ONEWEB-0138             
1 47284U 20100AC  26199.84185470  .00000262  00000+0  69429-3 0  9994
2 47284  87.8975 344.3728 0002091  99.2592 260.8773 13.12443411268801
ONEWEB-0139             
1 47285U 20100AD  26199.80641471 -.00000322  00000+0 -93062-3 0  9998
2 47285  87.8976 344.3656 0001931  97.2711 262.8638 13.12441501268873
ONEWEB-0140             
1 47286U 20100AE  26199.30310923  .00000260  00000+0  68723-3 0  9994
2 47286  87.8976 344.4572 0001791 102.0469 258.0861 13.12443867268772
ONEWEB-0141             
1 47287U 20100AF  26199.80612051 -.00000410  00000+0 -11750-2 0  9993
2 47287  87.8984 344.3654 0001644  95.0572 265.0745 13.12444696268821
ONEWEB-0142             
1 47288U 20100AG  26199.79454698 -.00000006  00000+0 -51423-4 0  9997
2 47288  87.8969 344.3841 0002150  88.1729 271.9645 13.12442966268815
ONEWEB-0143             
1 47289U 20100AH  26199.80457133 -.00000294  00000+0 -85141-3 0  9999
2 47289  87.8968 344.3818 0001827  95.4466 264.6871 13.12442680268798
ONEWEB-0144             
1 47290U 20100AJ  26199.85202236  .00000377  00000+0  10121-2 0  9993
2 47290  87.8979 344.3484 0002253  96.8606 263.2779 13.12442355268720
ONEWEB-0145             
1 47291U 20100AK  26199.82320917 -.00000355  00000+0 -10213-2 0  9998
2 47291  87.8966 344.3786 0001935  96.5030 263.6319 13.12443529268915
ONEWEB-0146             
1 47292U 20100AL  26199.81982090 -.00000386  00000+0 -11085-2 0  9996
2 47292  87.8977 344.3730 0001560 103.5451 256.5851 13.12443404268821
ONEWEB-0147             
1 47293U 20100AM  26199.86218058  .00000368  00000+0  98837-3 0  9997
2 47293  87.8977 344.3469 0001931 101.4625 258.6720 13.12442660268723
ONEWEB-0115             
1 48042U 21025A   26199.78944142  .00000018  00000+0  14785-4 0  9991
2 48042  87.8982 313.9357 0001852 102.7180 257.4156 13.13460854257748
ONEWEB-0152             
1 48043U 21025B   26199.80294610 -.00000306  00000+0 -87329-3 0  9998
2 48043  87.8991 313.9314 0001866 102.7828 257.3509 13.13473258257705
ONEWEB-0153             
1 48044U 21025C   26199.78095264  .00000178  00000+0  45179-3 0  9992
2 48044  87.8980 313.9362 0001996  98.2346 261.9009 13.13469256257692
ONEWEB-0154             
1 48045U 21025D   26199.77756799  .00000246  00000+0  63843-3 0  9993
2 48045  87.8988 313.9364 0001995 105.5287 254.6063 13.13469893257650
ONEWEB-0116             
1 48046U 21025E   26199.81649767 -.00000173  00000+0 -50889-3 0  9992
2 48046  87.8986 313.9258 0001843 103.1096 257.0239 13.13470734257800
ONEWEB-0150             
1 48047U 21025F   26199.79280443 -.00000128  00000+0 -38493-3 0  9999
2 48047  87.8992 313.9277 0001843  94.9302 265.2038 13.13469908257692
ONEWEB-0107             
1 48048U 21025G   26199.79449064 -.00000182  00000+0 -53204-3 0  9993
2 48048  87.8994 313.9231 0002110  99.2052 260.9316 13.13471909257676
ONEWEB-0101             
1 48049U 21025H   26199.75725166  .00000200  00000+0  51396-3 0  9999
2 48049  87.8976 313.9434 0002107 101.9090 258.2276 13.13471349257641
ONEWEB-0113             
1 48050U 21025J   26199.77147083  .00000287  00000+0  74652-3 0  9994
2 48050  87.8983 313.8479 0001871  96.2188 263.9154 13.13890746257756
ONEWEB-0112             
1 48051U 21025K   26199.79957346 -.00000201  00000+0 -58544-3 0  9998
2 48051  87.8988 313.9210 0002181 101.1942 258.9432 13.13469900257741
ONEWEB-0156             
1 48052U 21025L   26199.80802186 -.00000332  00000+0 -94413-3 0  9992
2 48052  87.8988 313.9289 0002008  96.6487 263.4871 13.13471995257721
ONEWEB-0161             
1 48053U 21025M   26199.78264260  .00000120  00000+0  29409-3 0  9991
2 48053  87.8989 313.9347 0002077  94.9784 265.1583 13.13472850257657
