OBJECT_NAME,OBJECT_ID,EPOCH,MEAN_MOTION,ECCENTRICITY,INCLINATION,RA_OF_ASC_NODE,ARG_OF_PERICENTER,MEAN_ANOMALY,EPHEMERIS_TYPE,CLASSIFICATION_TYPE,NORAD_CAT_ID,ELEMENT_SET_NO,REV_AT_EPOCH,BSTAR,MEAN_MOTION_DOT,MEAN_MOTION_DDOT
ONEWEB-0130,2020-100U,2026-07-18T19:52:44.878944,13.12443652,.0001961,87.8980,344.3627,98.8436,261.2915,0,U,47276,999,26879,-.59829E-3,-.203E-5,0
ONEWEB-0131,2020-100V,2026-07-18T19:47:52.293984,13.12443004,.0001878,87.8964,344.3782,102.5603,257.5735,0,U,47277,999,26883,-.88306E-3,-.305E-5,0
ONEWEB-0132,2020-100W,2026-07-18T20:29:20.804928,13.12441831,.0001914,87.8967,344.3750,98.3466,261.7880,0,U,47278,999,26873,.11979E-2,.444E-5,0
ONEWEB-0133,2020-100X,2026-07-18T19:03:44.493408,13.12442648,.0001871,87.8978,344.3663,105.3949,254.7386,0,U,47279,999,26888,-.11594E-4,.9E-7,0
ONEWEB-0134,2020-100Y,2026-07-18T20:09:49.704768,13.12443367,.000208,87.8979,344.3546,101.7875,258.3487,0,U,47280,999,26886,.52723E-3,.202E-5,0
ONEWEB-0135,2020-100Z,2026-07-18T19:28:20.271072,13.12442579,.0002029,87.8966,344.3788,104.7629,255.3724,0,U,47281,999,26888,-.12738E-2,-.445E-5,0
ONEWEB-0136,2020-100AA,2026-07-18T19:55:10.939008,13.12443603,.0002129,87.8972,344.3592,102.3318,257.8049,0,U,47282,999,26881,-.61249E-3,-.208E-5,0
ONEWEB-0137,2020-100AB,2026-07-18T18:54:11.509344,13.12442508,.0001819,87.8980,344.3789,92.3707,267.7630,0,U,47283,999,26871,.84503E-3,.317E-5,0
ONEWEB-0138,2020-100AC,2026-07-18T20:12:16.246080,13.12443411,.0002091,87.8975,344.3728,99.2592,260.8773,0,U,47284,999,26880,.69429E-3,.262E-5,0
ONEWEB-0139,2020-100AD,2026-07-18T19:21:14.230944,13.12441501,.0001931,87.8976,344.3656,97.2711,262.8638,0,U,47285,999,26887,-.93062E-3,-.322E-5,0
ONEWEB-0140,2020-100AE,2026-07-18T07:16:28.637472,13.12443867,.00017911,87.8976,344.4572,102.0469,258.0861,0,U,47286,999,26877,.68723063E-3,.26E-5,0
ONEWEB-0141,2020-100AF,2026-07-18T19:20:48.812064,13.12444696,.0001644,87.8984,344.3654,95.0572,265.0745,0,U,47287,999,26882,-.1175E-2,-.41E-5,0
ONEWEB-0142,2020-100AG,2026-07-18T19:04:08.859072,13.12442966,.000215,87.8969,344.3841,88.1729,271.9645,0,U,47288,999,26881,-.51423E-4,-.6E-7,0
ONEWEB-0143,2020-100AH,2026-07-18T19:18:34.962912,13.12442680,.0001827,87.8968,344.3818,95.4466,264.6871,0,U,47289,999,26879,-.85141E-3,-.294E-5,0
ONEWEB-0144,2020-100AJ,2026-07-18T20:26:54.731904,13.12442355,.0002253,87.8979,344.3484,96.8606,263.2779,0,U,47290,999,26872,.10121E-2,.377E-5,0
ONEWEB-0145,2020-100AK,2026-07-18T19:45:25.272288,13.12443529,.0001935,87.8966,344.3786,96.5030,263.6319,0,U,47291,999,26891,-.10213E-2,-.355E-5,0
ONEWEB-0146,2020-100AL,2026-07-18T19:40:32.525760,13.12443404,.000156,87.8977,344.3730,103.5451,256.5851,0,U,47292,999,26882,-.11085E-2,-.386E-5,0
ONEWEB-0147,2020-100AM,2026-07-18T20:41:32.402112,13.12442660,.0001931,87.8977,344.3469,101.4625,258.6720,0,U,47293,999,26872,.98837E-3,.368E-5,0
ONEWEB-0115,2021-025A,2026-07-18T18:56:47.738688,13.13460854,.0001852,87.8982,313.9357,102.7180,257.4156,0,U,48042,999,25774,.14785E-4,.18E-6,0
ONEWEB-0152,2021-025B,2026-07-18T19:16:14.543040,13.13473258,.0001866,87.8991,313.9314,102.7828,257.3509,0,U,48043,999,25770,-.87329E-3,-.306E-5,0
ONEWEB-0153,2021-025C,2026-07-18T18:44:34.308096,13.13469256,.0001996,87.8980,313.9362,98.2346,261.9009,0,U,48044,999,25769,.45179E-3,.178E-5,0
ONEWEB-0154,2021-025D,2026-07-18T18:39:41.874336,13.13469893,.0001995,87.8988,313.9364,105.5287,254.6063,0,U,48045,999,25765,.63843E-3,.246E-5,0
ONEWEB-0116,2021-025E,2026-07-18T19:35:45.398688,13.13470734,.0001843,87.8986,313.9258,103.1096,257.0239,0,U,48046,999,25780,-.50889E-3,-.173E-5,0
ONEWEB-0150,2021-025F,2026-07-18T19:01:38.302752,13.13469908,.0001843,87.8992,313.9277,94.9302,265.2038,0,U,48047,999,25769,-.38493E-3,-.128E-5,0
ONEWEB-0107,2021-025G,2026-07-18T19:04:03.991296,13.13471909,.000211,87.8994,313.9231,99.2052,260.9316,0,U,48048,999,25767,-.53204E-3,-.182E-5,0
ONEWEB-0101,2021-025H,2026-07-18T18:10:26.543424,13.13471349,.0002107,87.8976,313.9434,101.9090,258.2276,0,U,48049,999,25764,.51396E-3,.2E-5,0
ONEWEB-0113,2021-025J,2026-07-18T18:30:55.079712,13.13890746,.0001871,87.8983,313.8479,96.2188,263.9154,0,U,48050,999,25775,.74652E-3,.287E-5,0
ONEWEB-0112,2021-025K,2026-07-18T19:11:23.146944,13.13469900,.0002181,87.8988,313.9210,101.1942,258.9432,0,U,48051,999,25774,-.58544E-3,-.201E-5,0
ONEWEB-0156,2021-025L,2026-07-18T19:23:33.088704,13.13471995,.0002008,87.8988,313.9289,96.6487,263.4871,0,U,48052,999,25772,-.94413E-3,-.332E-5,0
ONEWEB-0161,2021-025M,2026-07-18T18:47:00.320640,13.13472850,.0002077,87.8989,313.9347,94.9784,265.1583,0,U,48053,999,25765,.29409E-3,.12E-5,0
